[{"OBJECT_NAME":"STARLINK-3541","OBJECT_ID":"2022-022C","EPOCH":"2026-03-09T03:43:39.090720","MEAN_MOTION":15.14066338,"ECCENTRICITY":0.00011202,"INCLINATION":53.2166,"RA_OF_ASC_NODE":19.7963,"ARG_OF_PERICENTER":55.171,"MEAN_ANOMALY":304.9389,"EPHEMERIS_TYPE":0,"CLASSIFICATION_TYPE":"U","NORAD_CAT_ID":51854,"ELEMENT_SET_NO":999,"REV_AT_EPOCH":22296,"BSTAR":0.0020482692,"MEAN_MOTION_DOT":0.00037583,"MEAN_MOTION_DDOT":0},{"OBJECT_NAME":"HAWK-12B","OBJECT_ID":"2025-138B","EPOCH":"2026-03-09T22:55:04.503936","MEAN_MOTION":15.17351346,"ECCENTRICITY":0.00148402,"INCLINATION":97.4491,"RA_OF_ASC_NODE":73.6322,"ARG_OF_PERICENTER":119.8702,"MEAN_ANOMALY":240.4008,"EPHEMERIS_TYPE":0,"CLASSIFICATION_TYPE":"U","NORAD_CAT_ID":64622,"ELEMENT_SET_NO":999,"REV_AT_EPOCH":3881,"BSTAR":0.00030366166,"MEAN_MOTION_DOT":6.011e-5,"MEAN_MOTION_DDOT":0}]
